start=new Date('2023-06-04T00:00:00.000Z').valueOf();
sats=[{"NORAD_CAT_ID":"48031","MEAN_ANOMALY":"286.8243","BSTAR":"-0.00007920300000","OBJECT_ID":"2021-024BG","EPHEMERIS_TYPE":"0","APOAPSIS":"547.968","OBJECT_TYPE":"PAYLOAD","FILE":"3924324","REF_FRAME":"TEME","PERIOD":"95.593","MEAN_MOTION":"15.06388282","DECAY_DATE":null,"GP_ID":"233142310","MEAN_ELEMENT_THEORY":"SGP4","RCS_SIZE":"LARGE","ARG_OF_PERICENTER":"73.2859","CLASSIFICATION_TYPE":"U","MEAN_MOTION_DOT":"-0.00001460","REV_AT_EPOCH":"12389","SITE":"AFETR","LAUNCH_DATE":"2021-03-24","TIME_SYSTEM":"UTC","MEAN_MOTION_DDOT":"0.0000000000000","CENTER_NAME":"EARTH","ECCENTRICITY":"0.00010370","INCLINATION":"53.0548","COUNTRY_CODE":"US","ELEMENT_SET_NO":"999","TLE_LINE2":"2 48031  53.0548  75.3316 0001037  73.2859 286.8243 15.06388282123892","TLE_LINE1":"1 48031U 21024BG  23154.76727142 -.00001460  00000-0 -79203-4 0  9994","EPOCH":"2023-06-03T18:24:52.250688","PERIAPSIS":"546.531","OBJECT_NAME":"STARLINK-2267","RA_OF_ASC_NODE":"75.3316","SEMIMAJOR_AXIS":"6925.384"},{"REF_FRAME":"TEME","PERIOD":"95.593","DECAY_DATE":null,"MEAN_MOTION":"15.06391307","GP_ID":"233143061","FILE":"3924324","OBJECT_TYPE":"PAYLOAD","APOAPSIS":"548.031","NORAD_CAT_ID":"48033","MEAN_ANOMALY":"256.2043","BSTAR":"-0.00000399860000","OBJECT_ID":"2021-024BJ","EPHEMERIS_TYPE":"0","CLASSIFICATION_TYPE":"U","ARG_OF_PERICENTER":"103.9073","RCS_SIZE":"LARGE","MEAN_ELEMENT_THEORY":"SGP4","TLE_LINE1":"1 48033U 21024BJ  23154.82347576 -.00000341  00000-0 -39986-5 0  9994","TLE_LINE2":"2 48033  53.0529 185.0793 0001142 103.9073 256.2043 15.06391307122426","EPOCH":"2023-06-03T19:45:48.305664","PERIAPSIS":"546.449","ECCENTRICITY":"0.00011420","INCLINATION":"53.0529","COUNTRY_CODE":"US","ELEMENT_SET_NO":"999","LAUNCH_DATE":"2021-03-24","TIME_SYSTEM":"UTC","MEAN_MOTION_DDOT":"0.0000000000000","CENTER_NAME":"EARTH","MEAN_MOTION_DOT":"-0.00000341","REV_AT_EPOCH":"12242","SITE":"AFETR","OBJECT_NAME":"STARLINK-2286","RA_OF_ASC_NODE":"185.0793","SEMIMAJOR_AXIS":"6925.375"},{"OBJECT_NAME":"STARLINK-2288","RA_OF_ASC_NODE":"185.2975","SEMIMAJOR_AXIS":"6925.367","MEAN_MOTION_DOT":"-0.00000904","REV_AT_EPOCH":"12241","SITE":"AFETR","LAUNCH_DATE":"2021-03-24","TIME_SYSTEM":"UTC","CENTER_NAME":"EARTH","MEAN_MOTION_DDOT":"0.0000000000000","ECCENTRICITY":"0.00010570","INCLINATION":"53.0513","COUNTRY_CODE":"US","ELEMENT_SET_NO":"999","TLE_LINE1":"1 48034U 21024BK  23154.77556089 -.00000904  00000-0 -41847-4 0  9993","TLE_LINE2":"2 48034  53.0513 185.2975 0001057  86.9420 273.1690 15.06394079122419","EPOCH":"2023-06-03T18:36:48.460896","PERIAPSIS":"546.500","MEAN_ELEMENT_THEORY":"SGP4","RCS_SIZE":"LARGE","ARG_OF_PERICENTER":"86.9420","CLASSIFICATION_TYPE":"U","NORAD_CAT_ID":"48034","MEAN_ANOMALY":"273.1690","OBJECT_ID":"2021-024BK","BSTAR":"-0.00004184700000","EPHEMERIS_TYPE":"0","APOAPSIS":"547.964","FILE":"3924324","OBJECT_TYPE":"PAYLOAD","PERIOD":"95.593","REF_FRAME":"TEME","MEAN_MOTION":"15.06394079","DECAY_DATE":null,"GP_ID":"233141809"},{"PERIAPSIS":"546.430","EPOCH":"2023-06-03T18:47:25.885536","TLE_LINE2":"2 48036  53.0535 185.2630 0001170  93.5252 266.5871 15.06391228122416","TLE_LINE1":"1 48036U 21024BM  23154.78293849 -.00000258  00000-0  15896-5 0  9995","INCLINATION":"53.0535","ECCENTRICITY":"0.00011700","ELEMENT_SET_NO":"999","COUNTRY_CODE":"US","LAUNCH_DATE":"2021-03-24","TIME_SYSTEM":"UTC","MEAN_MOTION_DDOT":"0.0000000000000","CENTER_NAME":"EARTH","MEAN_MOTION_DOT":"-0.00000258","REV_AT_EPOCH":"12241","SITE":"AFETR","RA_OF_ASC_NODE":"185.2630","OBJECT_NAME":"STARLINK-2295","SEMIMAJOR_AXIS":"6925.375","DECAY_DATE":null,"MEAN_MOTION":"15.06391228","PERIOD":"95.593","REF_FRAME":"TEME","GP_ID":"233141559","FILE":"3924324","OBJECT_TYPE":"PAYLOAD","APOAPSIS":"548.051","MEAN_ANOMALY":"266.5871","NORAD_CAT_ID":"48036","EPHEMERIS_TYPE":"0","OBJECT_ID":"2021-024BM","BSTAR":"0.00000158960000","CLASSIFICATION_TYPE":"U","ARG_OF_PERICENTER":"93.5252","RCS_SIZE":"LARGE","MEAN_ELEMENT_THEORY":"SGP4"},{"CLASSIFICATION_TYPE":"U","ARG_OF_PERICENTER":"105.3917","RCS_SIZE":"LARGE","MEAN_ELEMENT_THEORY":"SGP4","DECAY_DATE":null,"MEAN_MOTION":"15.06405243","PERIOD":"95.592","REF_FRAME":"TEME","GP_ID":"233142567","OBJECT_TYPE":"PAYLOAD","FILE":"3924324","APOAPSIS":"547.894","MEAN_ANOMALY":"254.7183","NORAD_CAT_ID":"48092","EPHEMERIS_TYPE":"0","OBJECT_ID":"2021-027A","BSTAR":"0.00052651000000","RA_OF_ASC_NODE":"310.8220","OBJECT_NAME":"STARLINK-2048","SEMIMAJOR_AXIS":"6925.332","PERIAPSIS":"546.501","EPOCH":"2023-06-03T17:19:13.803456","TLE_LINE2":"2 48092  53.0544 310.8220 0001006 105.3917 254.7183 15.06405243121234","TLE_LINE1":"1 48092U 21027A   23154.72168754  .00007571  00000-0  52651-3 0  9992","INCLINATION":"53.0544","ECCENTRICITY":"0.00010060","ELEMENT_SET_NO":"999","COUNTRY_CODE":"US","LAUNCH_DATE":"2021-04-07","TIME_SYSTEM":"UTC","MEAN_MOTION_DDOT":"0.0000000000000","CENTER_NAME":"EARTH","MEAN_MOTION_DOT":"0.00007571","REV_AT_EPOCH":"12123","SITE":"AFETR"},{"SITE":"AFETR","REV_AT_EPOCH":"12035","MEAN_MOTION_DOT":"0.00015141","CENTER_NAME":"EARTH","MEAN_MOTION_DDOT":"0.0000000000000","TIME_SYSTEM":"UTC","LAUNCH_DATE":"2021-04-07","ELEMENT_SET_NO":"999","COUNTRY_CODE":"US","INCLINATION":"53.0552","ECCENTRICITY":"0.00013430","EPOCH":"2023-06-03T21:12:06.896160","PERIAPSIS":"546.295","TLE_LINE2":"2 48093  53.0552  15.0128 0001343  64.8131 295.2997 15.06396079120357","TLE_LINE1":"1 48093U 21027B   23154.88341315  .00015141  00000-0  10333-2 0  9998","SEMIMAJOR_AXIS":"6925.361","RA_OF_ASC_NODE":"15.0128","OBJECT_NAME":"STARLINK-2404","EPHEMERIS_TYPE":"0","BSTAR":"0.00103330000000","OBJECT_ID":"2021-027B","MEAN_ANOMALY":"295.2997","NORAD_CAT_ID":"48093","APOAPSIS":"548.156","FILE":"3924324","OBJECT_TYPE":"PAYLOAD","GP_ID":"233141315","MEAN_MOTION":"15.06396079","DECAY_DATE":null,"REF_FRAME":"TEME","PERIOD":"95.592","MEAN_ELEMENT_THEORY":"SGP4","RCS_SIZE":"LARGE","ARG_OF_PERICENTER":"64.8131","CLASSIFICATION_TYPE":"U"},{"TIME_SYSTEM":"UTC","LAUNCH_DATE":"2021-04-07","MEAN_MOTION_DDOT":"0.0000000000000","CENTER_NAME":"EARTH","MEAN_MOTION_DOT":"0.00014437","SITE":"AFETR","REV_AT_EPOCH":"12022","TLE_LINE2":"2 48094  53.0545  24.7343 0001282  70.3306 289.7822 15.06395933120223","TLE_LINE1":"1 48094U 21027C   23154.90089248  .00014437  00000-0  98619-3 0  9997","EPOCH":"2023-06-03T21:37:17.110272","PERIAPSIS":"546.338","ECCENTRICITY":"0.00012820","INCLINATION":"53.0545","COUNTRY_CODE":"US","ELEMENT_SET_NO":"999","OBJECT_NAME":"STARLINK-2412","RA_OF_ASC_NODE":"24.7343","SEMIMAJOR_AXIS":"6925.361","APOAPSIS":"548.114","NORAD_CAT_ID":"48094","MEAN_ANOMALY":"289.7822","BSTAR":"0.00098619000000","OBJECT_ID":"2021-027C","EPHEMERIS_TYPE":"0","REF_FRAME":"TEME","PERIOD":"95.592","MEAN_MOTION":"15.06395933","DECAY_DATE":null,"GP_ID":"233142066","OBJECT_TYPE":"PAYLOAD","FILE":"3924324","RCS_SIZE":"LARGE","MEAN_ELEMENT_THEORY":"SGP4","CLASSIFICATION_TYPE":"U","ARG_OF_PERICENTER":"70.3306"},{"COUNTRY_CODE":"US","ELEMENT_SET_NO":"999","ECCENTRICITY":"0.00013480","INCLINATION":"53.0540","TLE_LINE2":"2 48095  53.0540  24.7091 0001348  66.2438 293.8693 15.06401541120238","TLE_LINE1":"1 48095U 21027D   23154.90827099  .00020688  00000-0  14036-2 0  9997","PERIAPSIS":"546.275","EPOCH":"2023-06-03T21:47:54.613536","REV_AT_EPOCH":"12023","SITE":"AFETR","MEAN_MOTION_DOT":"0.00020688","CENTER_NAME":"EARTH","MEAN_MOTION_DDOT":"0.0000000000000","LAUNCH_DATE":"2021-04-07","TIME_SYSTEM":"UTC","SEMIMAJOR_AXIS":"6925.344","OBJECT_NAME":"STARLINK-2414","RA_OF_ASC_NODE":"24.7091","OBJECT_TYPE":"PAYLOAD","FILE":"3924324","GP_ID":"233142317","PERIOD":"95.592","REF_FRAME":"TEME","MEAN_MOTION":"15.06401541","DECAY_DATE":null,"BSTAR":"0.00140360000000","OBJECT_ID":"2021-027D","EPHEMERIS_TYPE":"0","NORAD_CAT_ID":"48095","MEAN_ANOMALY":"293.8693","APOAPSIS":"548.142","ARG_OF_PERICENTER":"66.2438","CLASSIFICATION_TYPE":"U","MEAN_ELEMENT_THEORY":"SGP4","RCS_SIZE":"MEDIUM"},{"CLASSIFICATION_TYPE":"U","ARG_OF_PERICENTER":"109.3517","RCS_SIZE":"LARGE","MEAN_ELEMENT_THEORY":"SGP4","REF_FRAME":"TEME","PERIOD":"95.592","MEAN_MOTION":"15.06403481","DECAY_DATE":null,"GP_ID":"233143068","OBJECT_TYPE":"PAYLOAD","FILE":"3924324","APOAPSIS":"547.815","NORAD_CAT_ID":"48096","MEAN_ANOMALY":"250.7568","BSTAR":"0.00088589000000","OBJECT_ID":"2021-027E","EPHEMERIS_TYPE":"0","OBJECT_NAME":"STARLINK-2417","RA_OF_ASC_NODE":"24.8212","SEMIMAJOR_AXIS":"6925.338","TLE_LINE1":"1 48096U 21027E   23154.88245765  .00012940  00000-0  88589-3 0  9996","TLE_LINE2":"2 48096  53.0548  24.8212 0000884 109.3517 250.7568 15.06403481120210","PERIAPSIS":"546.591","EPOCH":"2023-06-03T21:10:44.340960","ECCENTRICITY":"0.00008840","INCLINATION":"53.0548","COUNTRY_CODE":"US","ELEMENT_SET_NO":"999","LAUNCH_DATE":"2021-04-07","TIME_SYSTEM":"UTC","CENTER_NAME":"EARTH","MEAN_MOTION_DDOT":"0.0000000000000","MEAN_MOTION_DOT":"0.00012940","REV_AT_EPOCH":"12021","SITE":"AFETR"},{"TLE_LINE2":"2 48097  53.0536   4.9091 0001139  80.7300 279.3818 15.06386835120496","TLE_LINE1":"1 48097U 21027F   23154.86219938  .00015345  00000-0  10472-2 0  9995","EPOCH":"2023-06-03T20:41:34.026432","PERIAPSIS":"546.465","ECCENTRICITY":"0.00011390","INCLINATION":"53.0536","COUNTRY_CODE":"US","ELEMENT_SET_NO":"999","TIME_SYSTEM":"UTC","LAUNCH_DATE":"2021-04-07","CENTER_NAME":"EARTH","MEAN_MOTION_DDOT":"0.0000000000000","MEAN_MOTION_DOT":"0.00015345","REV_AT_EPOCH":"12049","SITE":"AFETR","OBJECT_NAME":"STARLINK-2418","RA_OF_ASC_NODE":"4.9091","SEMIMAJOR_AXIS":"6925.389","PERIOD":"95.593","REF_FRAME":"TEME","MEAN_MOTION":"15.06386835","DECAY_DATE":null,"GP_ID":"233141816","FILE":"3924324","OBJECT_TYPE":"PAYLOAD","APOAPSIS":"548.043","NORAD_CAT_ID":"48097","MEAN_ANOMALY":"279.3818","BSTAR":"0.00104720000000","OBJECT_ID":"2021-027F","EPHEMERIS_TYPE":"0","CLASSIFICATION_TYPE":"U","ARG_OF_PERICENTER":"80.7300","RCS_SIZE":"LARGE","MEAN_ELEMENT_THEORY":"SGP4"}];
